id,name,license,state,city,phone,address 
1,"VonRueden, Walker and Schroeder",Z30-Q45-W275,NJ,Newark,973-817-2283,43 Moland Parkway
2,Ward-Weissnat,W72-G58-W889,NJ,Paterson,862-833-0269,3652 Crowley Court
3,Hyatt Group,H56-J90-J238,NJ,Elizabeth,908-714-1016,6566 Bowman Court
4,"Rippin, Zieme and Bosco",D52-Z20-K461,NJ,Trenton,609-720-0553,01705 Pleasure Pass
5,"Thompson, Parker and Schneider",G56-C57-Y040,NJ,Paterson,862-979-7410,25 Reinke Park
6,Frami LLC,E51-G47-E042,NJ,Paterson,973-537-2427,94 North Street
7,Rodriguez-Carter,S24-C60-O441,NJ,Paterson,201-658-2440,0 Linden Center
8,"Bode, Kreiger and Abernathy",U76-A99-L228,NJ,Paterson,973-103-0436,41203 Graceland Hill
9,Rolfson Inc,M85-G47-X246,NJ,New Brunswick,732-854-7275,8967 Johnson Alley
10,"Sipes, Mueller and Walker",L94-S14-K088,NJ,Trenton,609-802-8103,000 6th Parkway
11,Dicki-Kuphal,H60-U36-T059,NJ,Newark,973-696-9550,54514 Grim Terrace
12,Jakubowski-Hyatt,J62-F91-V626,NJ,Trenton,609-868-5698,19021 Dottie Parkway
13,"Ward, Bradtke and Heathcote",J33-P44-A950,NJ,Paterson,862-888-1529,56 Dixon Alley
14,"Boyle, Schowalter and McClure",X14-B98-P721,NJ,New Brunswick,732-637-1012,90358 Loeprich Plaza
15,Mraz-Schmeler,F42-B33-K584,NJ,Paterson,973-902-3587,17 Jackson Center
16,Klocko LLC,S26-S10-A106,NJ,Newark,973-287-6809,6627 Corry Place
17,Rohan-Sipes,J29-H63-L007,NJ,Jersey City,201-531-7186,21 Katie Court
18,Abshire-Mante,S76-S06-H116,NJ,Trenton,609-691-9740,69231 Sauthoff Pass
19,"Kutch, Connelly and Wiza",F78-A83-Q125,NJ,Newark,973-636-8192,84 Fulton Alley
20,Windler LLC,V86-Y58-W927,NJ,Trenton,609-675-6862,686 North Circle
21,Maggio-Crona,V35-T62-K060,NJ,New Brunswick,732-937-3520,2102 Merrick Crossing
22,Collier-Dicki,Y14-X02-P779,NJ,Trenton,609-121-3467,568 Dexter Circle
23,"Hansen, Hodkiewicz and Kessler",S80-F99-A290,NJ,Trenton,609-860-7881,670 Eagle Crest Trail
24,Hermiston-Mayer,O55-Y56-E408,NJ,Newark,862-676-6611,40779 Mcbride Alley
25,Hodkiewicz Inc,C38-S36-K889,NJ,Newark,201-675-1466,836 Monterey Street
26,"Hauck, Hettinger and Hills",E05-B87-O845,NJ,Paterson,973-897-6847,170 Kim Road
27,McLaughlin and Sons,I54-W04-H162,NJ,Jersey City,201-112-5188,081 Fulton Avenue
28,Abshire Group,K30-A39-H016,NJ,Paterson,973-254-8513,72 Muir Court
29,Lubowitz and Sons,Q44-E31-R573,NJ,Trenton,609-568-7352,56 Luster Hill
30,Marks Group,X92-Y63-F146,NJ,New Brunswick,732-569-9678,679 Corry Terrace
31,"Hahn, Weber and Nader",S55-U89-C263,NJ,Trenton,609-670-3589,91 Grasskamp Way
32,O'Kon-Barton,C83-X83-L549,NJ,Paterson,973-203-0556,39 Morrow Alley
33,Schneider-Cartwright,E75-A09-V436,NJ,Trenton,609-418-2813,0 Carpenter Court
34,Hyatt Inc,B17-Z39-J481,NJ,Jersey City,201-689-9321,57 Drewry Place
35,"Schmitt, Stracke and Will",D76-L91-K419,NJ,New Brunswick,732-405-2122,1122 Dovetail Pass
36,Haley Group,T44-B09-S081,NJ,Trenton,609-886-7715,0899 Village Green Drive
37,Jenkins and Sons,B54-K95-N646,NJ,Trenton,609-499-2712,9449 Swallow Circle
38,Schinner LLC,X62-X66-K151,NJ,Jersey City,201-335-1508,09887 Fallview Court
39,Hayes Group,R14-H06-Z707,NJ,Paterson,201-558-6088,93907 Buell Street
40,Leuschke Group,N40-M21-W018,NJ,Newark,862-857-7307,0881 Bartillon Point
41,Klein-Ledner,E57-F54-X319,NJ,Trenton,609-494-1332,4387 Annamark Road
42,"Schroeder, Davis and Leffler",J12-Q33-Z520,NJ,Camden,856-547-7603,2 Thackeray Park
43,Schoen LLC,D87-W08-G060,NJ,Camden,856-742-4972,739 Dunning Parkway
44,"Renner, Schuster and Zboncak",T36-D23-G008,NJ,Elizabeth,908-235-0441,42868 Novick Drive
45,Emmerich and Sons,L36-W43-E234,NJ,Trenton,609-539-0075,8 Westerfield Parkway
46,"Herzog, Littel and Kunze",W62-V27-Q814,NJ,Trenton,609-654-2186,9007 Sage Road
47,Morar-Harvey,J59-Y79-C534,NJ,Camden,856-315-2327,1370 Saint Paul Place
48,Gleason and Sons,G04-H92-Y985,NJ,Paterson,862-934-2792,36065 Brown Terrace
49,Green-Roberts,U21-L94-D954,NJ,Paterson,973-230-2501,342 Dryden Hill
50,"Streich, Mosciski and Huel",P53-L83-T244,NJ,Jersey City,201-327-2467,040 Melvin Center
51,Friesen Group,R74-Q08-K895,NJ,Paterson,973-896-4853,62069 Lyons Trail
52,"Fisher, Cassin and Hackett",S00-A59-V529,NJ,Trenton,609-681-6474,3320 Hansons Pass
53,Hansen LLC,B45-A44-B046,NJ,Trenton,609-701-1882,13624 Victoria Terrace
54,Volkman LLC,G81-U14-N047,NJ,Paterson,973-821-4310,6287 Atwood Street
55,Pagac-Huels,O08-T76-W745,NJ,Jersey City,201-644-0268,199 Fallview Circle
56,"Heathcote, Hoppe and Koss",B00-B60-G459,NJ,Newark,973-729-9246,61 Helena Circle
57,Robel-Rutherford,P26-K00-W450,NJ,Newark,201-472-3932,71 Scott Trail
58,"Spencer, Jerde and Predovic",K01-O88-R522,NJ,Paterson,201-922-6296,8386 Bay Avenue
59,"Fay, Gottlieb and Schuppe",R23-O23-V520,NJ,Newark,973-972-0580,8 Esker Terrace
60,Langosh Group,N16-O05-R134,NJ,Newark,973-374-2756,0 Ryan Terrace
61,Renner Group,A01-Z53-K830,NJ,Trenton,609-975-7312,754 Towne Way
62,"Towne, Nikolaus and Thiel",E94-Y46-Q252,NJ,Trenton,609-612-7506,9 Red Cloud Point
63,Wyman and Sons,Z68-W28-K198,NJ,Trenton,609-883-5327,6303 Lakeland Park
64,"Cassin, Feil and Schmitt",V34-H19-N555,NJ,Paterson,201-844-7443,58539 Scoville Terrace
65,"Cole, Larson and Weber",B05-B75-R294,NJ,Trenton,609-502-4328,34 Oak Valley Center
66,Cronin and Sons,I68-C54-G031,NJ,Trenton,609-361-8458,8 Scott Avenue
67,Pouros-Rohan,J28-Q53-I968,NJ,Paterson,862-969-8870,29 Warbler Place
68,Romaguera-Rau,H90-B09-R530,NJ,Jersey City,201-314-0330,696 Stang Crossing
69,"Keeling, Okuneva and Rippin",R05-Q27-R655,NJ,Trenton,609-822-7802,85 Straubel Lane
70,Rutherford LLC,N45-A30-X878,NJ,Trenton,609-372-0396,14232 Jackson Park
71,Bailey Inc,I77-W78-A664,NJ,Newark,862-456-4745,4 Superior Place
72,"Heller, Ortiz and Kovacek",Y22-U11-Q241,NJ,Jersey City,201-582-5771,51088 Grayhawk Lane
73,Walsh and Sons,R25-B85-H368,NJ,Newark,862-887-2718,6221 Jackson Point
74,Metz-Kozey,P13-M09-B702,NJ,Jersey City,201-610-4392,3280 Dahle Court
75,Batz Group,L63-T99-U315,NJ,Trenton,609-424-6641,4 High Crossing Hill
