id,name,state,city,phone,address
1,Merline,NJ,Newark,862-546-3524,8 Lake View Plaza
2,Herve,NJ,Trenton,609-876-4907,2 Pepper Wood Parkway
3,Salome,NJ,Newark,973-177-5686,4 Tennessee Circle
4,Ophelie,NJ,Paterson,862-694-8519,14358 Dottie Trail
5,Basil,NJ,Trenton,609-983-8745,5 Bartillon Trail
6,Jorey,NJ,New Brunswick,732-786-7265,6 Beilfuss Pass
7,Maxine,NJ,Trenton,609-789-7766,005 Fallview Avenue
8,Simon,NJ,Trenton,609-691-2736,23 Hintze Alley
9,Abran,NJ,Trenton,609-769-8607,58 Brown Trail
10,Missie,NJ,Paterson,201-970-5976,79 Sheridan Trail
11,Druci,NJ,New Brunswick,732-916-1492,437 Maryland Road
12,Olenka,NJ,Paterson,862-836-6232,5 Scott Terrace
13,Benjamen,NJ,Jersey City,973-780-0172,06964 Burrows Junction
14,Hanson,NJ,Trenton,609-449-9599,66 Cardinal Drive
15,Nanni,NJ,Newark,862-429-6701,6909 Sundown Place
16,Pepi,NJ,Trenton,609-479-2831,774 Blue Bill Park Junction
17,Lani,NJ,Jersey City,908-317-7521,567 Kennedy Pass
18,Georgiana,NJ,Newark,973-209-4373,9092 Canary Crossing
19,Melony,NJ,Trenton,609-203-8879,7 Birchwood Circle
20,Merrill,NJ,Jersey City,201-970-1873,93033 Debs Circle
21,Virginie,NJ,Trenton,609-348-3216,1022 Morrow Alley
22,Theo,NJ,Newark,862-642-0595,803 Sullivan Circle
23,Marian,NJ,Trenton,609-604-3601,5 Melrose Point
24,Tatiana,NJ,Paterson,201-840-3473,4711 Vahlen Court
25,Sollie,NJ,Trenton,609-863-1572,55 Rieder Center
26,Orson,NJ,Trenton,609-722-0516,01878 7th Crossing
27,Constantino,NJ,Trenton,609-818-7651,47775 Manley Way
28,Emmalee,NJ,Paterson,862-762-4809,5 Warbler Center
29,Bryana,NJ,Newark,862-187-0626,307 Karstens Avenue
30,Philip,NJ,Paterson,862-244-8137,1373 Mcguire Road
31,Ibby,NJ,Newark,862-250-2249,4 Fisk Place
32,Jorge,NJ,Paterson,862-544-1422,47 Barnett Terrace
33,Garv,NJ,Newark,862-626-8250,62468 Red Cloud Court
34,Antonius,NJ,Newark,862-480-5252,0 Ramsey Center
35,Even,NJ,Elizabeth,908-697-1147,5 Sutteridge Pass
36,Brendis,NJ,Trenton,609-737-2876,284 Longview Center
37,Paulita,NJ,Paterson,862-614-4937,0603 Sullivan Street
38,Ulrick,NJ,Newark,973-871-6905,5 Caliangt Parkway
39,Piotr,NJ,Paterson,862-309-0836,0 Northport Center
40,Calida,NJ,Paterson,862-100-3823,8721 American Ash Crossing
41,Ciel,NJ,Jersey City,201-311-4321,36 Paget Avenue
42,Bertrando,NJ,Jersey City,201-774-9565,47443 Hintze Trail
43,Anette,NJ,Newark,862-487-2230,0003 Waubesa Avenue
44,Arluene,NJ,Paterson,862-630-2348,12 Di Loreto Junction
45,Homer,NJ,Newark,201-334-2353,8296 Mosinee Place
46,Bebe,NJ,Paterson,862-308-9557,63475 Dawn Crossing
47,Monika,NJ,Newark,862-821-0670,531 Debra Street
48,Beaufort,NJ,Trenton,609-399-4393,81 School Drive
49,Donalt,NJ,Newark,973-508-3318,897 Burrows Lane
50,Angus,NJ,Jersey City,201-471-5514,9333 Hansons Hill
51,Rasla,NJ,Elizabeth,908-683-9865,96 Roxbury Pass
52,Lynn,NJ,Newark,862-264-6692,104 Eliot Way
53,Merwyn,NJ,Trenton,609-664-4569,32 Hoepker Lane
54,Ellwood,NJ,Newark,973-200-3223,9472 Killdeer Trail
55,Greer,NJ,Newark,862-873-8603,9 Thackeray Court
56,Morty,NJ,Newark,973-639-1173,5 Fieldstone Road
57,Vanni,NJ,Newark,862-378-2753,7 Myrtle Terrace
58,Benjimen,NJ,Trenton,609-400-7389,17 Mitchell Plaza
59,Debi,NJ,Newark,862-492-6583,782 Northland Alley
60,Loutitia,NJ,Paterson,973-243-8411,4500 Troy Drive
61,Velma,NJ,Trenton,609-903-0809,47 Cherokee Avenue
62,Aguste,NJ,Trenton,609-582-9695,9640 Susan Circle
63,Carlene,NJ,Trenton,609-139-2240,321 Haas Court
64,Lionello,NJ,Paterson,201-632-9795,95 Thompson Terrace
65,Mathian,NJ,Jersey City,201-623-7305,6 Mosinee Alley
66,Maris,NJ,Elizabeth,908-406-9560,788 Novick Junction
67,Evey,NJ,Trenton,609-493-1709,8 Commercial Place
68,Salomon,NJ,Camden,856-478-2482,758 Calypso Crossing
69,Renae,NJ,Newark,201-694-4779,7454 Bay Drive
70,Rich,NJ,Trenton,609-799-2515,5832 Marcy Park
71,Dari,NJ,Trenton,609-420-2453,27173 Green Way
72,Bail,NJ,Jersey City,201-841-3260,429 Luster Alley
73,Chip,NJ,Elizabeth,908-517-0412,17 Columbus Parkway
74,Norma,NJ,Paterson,973-390-2423,755 Lunder Pass
75,Nanny,NJ,Trenton,609-740-6563,97511 Hanson Drive
76,Blanche,NJ,Newark,862-286-8182,547 Elgar Center
77,Todd,NJ,Paterson,973-426-1473,2206 Sutherland Junction
78,Yehudit,NJ,Newark,201-962-5315,0 Hansons Plaza
79,Hodge,NJ,Newark,862-548-8093,580 Rutledge Trail
80,Vasilis,NJ,Elizabeth,908-665-3741,938 Bartelt Street
81,Boote,NJ,Newark,862-167-9506,096 Stephen Junction
82,Nolly,NJ,Trenton,609-116-7673,28 Forest Run Center
83,Jennifer,NJ,Paterson,862-103-3623,86104 Ridgeway Road
84,Thekla,NJ,Trenton,609-326-8821,218 Bultman Place
85,Amelie,NJ,Camden,856-208-0392,6026 Mifflin Circle
86,Isabel,NJ,Paterson,862-261-2079,3398 Grim Alley
87,Elayne,NJ,Trenton,609-765-2361,20 Roxbury Terrace
88,Julienne,NJ,Paterson,201-603-9130,312 Porter Alley
89,Carmella,NJ,Trenton,609-304-2937,9 Park Meadow Place
90,Lorrin,NJ,Newark,862-608-9970,8403 Amoth Trail
91,Billie,NJ,Trenton,609-422-7353,079 Schlimgen Center
92,Borg,NJ,New Brunswick,732-834-0160,44413 American Terrace
93,Brod,NJ,Jersey City,973-228-5605,6242 Clove Circle
94,Aurore,NJ,Trenton,609-647-6835,329 Ryan Center
95,Osbourne,NJ,Newark,973-925-3889,70671 Lighthouse Bay Hill
96,Gwenore,NJ,Paterson,201-582-6020,17570 Tomscot Junction
97,Jefferson,NJ,Newark,973-177-3672,1 Saint Paul Center
98,Ketti,NJ,Trenton,609-561-5367,761 International Terrace
99,Dolorita,NJ,Paterson,973-825-6618,6 Lyons Road
100,Patrice,NJ,Trenton,609-856-7778,065 Havey Center
101,Karlotta,NJ,New Brunswick,732-427-0408,757 Bultman Trail
102,Eryn,NJ,Trenton,609-494-2859,02 Sauthoff Lane
103,Cleveland,NJ,Elizabeth,908-592-5590,37 Crescent Oaks Junction
104,Linda,NJ,Trenton,609-922-9897,28270 Nevada Court
105,Linus,NJ,Camden,856-156-6274,9 Badeau Crossing
106,Ted,NJ,Paterson,973-774-8697,34671 Raven Way
107,Andonis,NJ,Trenton,609-371-7688,44 Lakewood Junction
108,Alick,NJ,Trenton,609-766-5551,147 Debs Plaza
109,Cyndi,NJ,Trenton,609-167-1486,3 6th Drive
110,Leonelle,NJ,Trenton,609-205-5498,5620 Vidon Way
111,Bordy,NJ,Jersey City,551-706-5586,83 Loftsgordon Lane
112,Konstanze,NJ,Newark,862-537-0743,00777 Oneill Avenue
113,Adrien,NJ,Newark,862-171-9506,9 Sunnyside Hill
114,Ashley,NJ,Newark,973-252-8508,41 Arizona Court
115,Filippo,NJ,Paterson,973-452-3452,35611 Fairfield Park
116,Richie,NJ,Jersey City,201-103-5912,2 Cascade Plaza
117,Booth,NJ,Elizabeth,908-869-3660,0437 Mesta Place
118,Jackqueline,NJ,Newark,973-141-3143,380 Roxbury Street
119,Wilhelmine,NJ,Elizabeth,908-950-0118,34 Armistice Hill
120,Devy,NJ,Trenton,609-394-2124,53 Hermina Point
121,Portie,NJ,Camden,856-839-3433,1393 Hazelcrest Trail
122,Miles,NJ,Trenton,609-733-0249,3 Carioca Trail
123,Essa,NJ,Paterson,862-860-3151,2 Crest Line Court
124,Maxie,NJ,New Brunswick,732-788-4914,8507 Judy Trail
125,Onfroi,NJ,Newark,862-531-5265,8 Center Hill
126,Kerr,NJ,Trenton,609-561-9903,675 Sullivan Center
127,Aldon,NJ,Trenton,609-455-8294,1 Chive Crossing
128,Anthe,NJ,Trenton,609-955-3836,06 Anzinger Trail
129,Cordelia,NJ,Trenton,609-774-7300,25543 Corscot Avenue
130,Millisent,NJ,Paterson,973-689-6328,7 Larry Lane
131,Tanhya,NJ,Trenton,609-384-6982,49254 Cherokee Road
132,Chaddy,NJ,Trenton,609-201-5097,26732 Dexter Street
133,Irma,NJ,Newark,973-845-5811,29 Havey Lane
134,Nanice,NJ,Newark,862-605-6631,41 Eliot Center
135,Barbee,NJ,Newark,862-893-4963,881 Huxley Plaza
136,Sena,NJ,Paterson,973-584-2950,39573 Blackbird Crossing
137,Clemens,NJ,Newark,862-667-7383,2805 Saint Paul Alley
138,Silvano,NJ,Trenton,609-620-8145,2202 Mosinee Circle
139,Cammie,NJ,Trenton,609-584-9552,972 Farwell Road
140,Patricia,NJ,Trenton,609-959-4874,23048 Autumn Leaf Parkway
141,Molly,NJ,Newark,862-805-6358,74 Rutledge Drive
142,Valma,NJ,Jersey City,908-860-1979,74613 Golf View Parkway
143,Jeramey,NJ,Jersey City,201-169-9124,587 Union Junction
144,Kath,NJ,Newark,862-482-1299,7103 Blackbird Parkway
145,Micah,NJ,Jersey City,551-161-1022,9 Judy Circle
146,Coralyn,NJ,Newark,973-273-6552,5615 Scofield Street
147,Bryce,NJ,Trenton,609-807-2903,12234 Center Street
148,Edgardo,NJ,Trenton,609-751-9864,67 Continental Place
149,Gaynor,NJ,Camden,856-574-4312,81884 Manufacturers Court
150,Dottie,NJ,Trenton,609-866-2682,9 Scott Street
151,Dara,NJ,Paterson,862-414-9317,8751 Nevada Crossing
152,Bank,NJ,Newark,862-221-0869,216 Hoepker Trail
153,Trefor,NJ,Jersey City,201-144-0725,67 1st Street
154,Kerstin,NJ,Trenton,609-208-4413,24768 Parkside Circle
155,Jenn,NJ,Trenton,609-438-3804,7 Fremont Junction
156,Karlee,NJ,Trenton,609-279-5058,7 Becker Crossing
157,Kat,NJ,Newark,201-399-5146,96738 Granby Place
158,Barby,NJ,Jersey City,201-562-7780,9995 Helena Center
159,Jackie,NJ,Trenton,609-131-9741,3466 La Follette Terrace
160,Rand,NJ,Trenton,609-309-5941,75135 Vahlen Circle
161,Chuck,NJ,Paterson,862-941-7141,9 Towne Pass
162,Robyn,NJ,Trenton,609-852-9326,44904 Welch Trail
163,Valery,NJ,Elizabeth,908-832-7098,1494 Mayer Place
164,Mitzi,NJ,Trenton,609-330-5910,1938 West Lane
165,Adria,NJ,Jersey City,908-936-3839,67956 Elmside Hill
166,Griffy,NJ,Trenton,609-975-1386,08 Eggendart Plaza
167,Nicol,NJ,Camden,856-184-6628,2 Union Circle
168,Jolee,NJ,Newark,973-450-5493,3437 Talmadge Road
169,Dede,NJ,Newark,862-628-6695,2541 Cardinal Way
170,Celestine,NJ,Elizabeth,908-465-9994,36255 Corben Center
171,Pepito,NJ,Camden,856-552-4054,369 Daystar Lane
172,Lindsy,NJ,Trenton,609-542-9137,89 Dorton Street
173,Darrick,NJ,Camden,856-944-2962,878 Sloan Way
174,Kailey,NJ,Newark,862-509-9733,046 Upham Pass
175,Shurlocke,NJ,Jersey City,973-918-8153,06 Ridge Oak Alley
176,Elsa,NJ,New Brunswick,732-141-4400,313 Carberry Center
177,Emilee,NJ,Jersey City,201-944-6978,14447 Lien Trail
178,Peggi,NJ,Newark,862-182-5492,85841 Sheridan Circle
179,Ase,NJ,Camden,856-251-8214,4 Truax Court
180,Bettye,NJ,Newark,973-676-0730,00064 Helena Parkway
181,Sybille,NJ,Trenton,609-310-6843,87 Redwing Way
182,Ronny,NJ,Newark,862-543-6294,030 Lake View Court
183,Karlen,NJ,Newark,862-415-3042,5 Spaight Parkway
184,Isahella,NJ,Newark,862-834-1304,0190 Crowley Terrace
185,Keane,NJ,Trenton,609-268-4543,45 Pawling Drive
186,Ruthanne,NJ,Newark,862-266-2635,794 Victoria Hill
187,Tess,NJ,Trenton,609-151-5026,91 Lerdahl Place
188,Berry,NJ,Newark,862-941-9316,0 Kinsman Center
189,Evangelin,NJ,Trenton,609-111-0062,6 Transport Crossing
190,Erwin,NJ,Camden,856-630-9576,86 Merry Drive
191,Bary,NJ,Elizabeth,908-929-1622,47 Novick Crossing
192,Margaretha,NJ,Trenton,609-334-1218,7 Bartelt Point
193,Valenka,NJ,Trenton,609-394-8932,749 Prentice Hill
194,Dyane,NJ,Newark,862-774-2630,121 Huxley Center
195,Vincents,NJ,Camden,856-659-8707,1647 Mayer Parkway
196,Stan,NJ,Paterson,862-364-9742,81 Anthes Trail
197,Bondie,NJ,Paterson,862-302-6267,04162 Mendota Plaza
198,Mallory,NJ,Elizabeth,908-596-8724,755 Vahlen Road
199,Petronilla,NJ,Trenton,609-327-6822,6 Helena Trail
200,Saunders,NJ,New Brunswick,732-375-8921,0 Johnson Junction
